NORAD_CAT_ID,OBJECT_NAME,OBJECT_TYPE,EPOCH,MEAN_MOTION,ECCENTRICITY,INCLINATION,RA_OF_ASC_NODE,ARG_OF_PERICENTER,MEAN_ANOMALY,BSTAR,MEAN_MOTION_DOT,MEAN_MOTION_DDOT,TLE_LINE0,TLE_LINE1,TLE_LINE2,SEMIMAJOR_AXIS,PERIOD,APOGEE,PERIGEE,DECAYED
53249.0,STARLINK-4128,PAYLOAD,2023-09-21 07:25:23,15.08838531,0.0001739,53.216,276.0957,86.749,273.3701,0.00013848,1.916e-05,0.0,0 STARLINK-4128,1 53249U 22086H   23264.30929470  .00001916  00000-0  13848-3 0  9996,2 53249  53.2160 276.0957 0001739  86.7490 273.3701 15.08838531 64951,6917.885,95.438,540.953,538.547,0.0
53249.0,STARLINK-4128,PAYLOAD,2023-09-22 07:16:10,15.08848575,0.0001752,53.2163,271.6363,91.6957,268.4236,0.00038371,5.825e-05,0.0,0 STARLINK-4128,1 53249U 22086H   23265.30289375  .00005825  00000-0  38371-3 0  9991,2 53249  53.2163 271.6363 0001752  91.6957 268.4236 15.08848575 65301,6917.854,95.437,540.931,538.507,0.0
53249.0,STARLINK-4128,PAYLOAD,2023-09-23 00:45:24,15.08844255,0.0001819,53.2164,268.3667,92.3974,267.7226,0.00015774,2.224e-05,0.0,0 STARLINK-4128,1 53249U 22086H   23266.03153443  .00002224  00000-0  15774-3 0  9990,2 53249  53.2164 268.3667 0001819  92.3974 267.7226 15.08844255 65215,6917.867,95.437,540.991,538.474,0.0
53249.0,STARLINK-4128,PAYLOAD,2023-09-23 07:06:57,15.08834448,0.0001746,53.2161,267.1763,96.5288,263.5903,-1.2731e-05,-4.91e-06,0.0,0 STARLINK-4128,1 53249U 22086H   23266.29649895 -.00000491  00000-0 -12731-4 0  9996,2 53249  53.2161 267.1763 0001746  96.5288 263.5903 15.08834448 65252,6917.897,95.438,540.97,538.554,0.0
53249.0,STARLINK-4128,PAYLOAD,2023-09-24 10:08:29,15.08852446,0.0001728,53.2155,262.1196,89.8344,270.2846,0.00019041,2.745e-05,0.0,0 STARLINK-4128,1 53249U 22086H   23267.42256906  .00002745  00000-0  19041-3 0  9991,2 53249  53.2155 262.1196 0001728  89.8344 270.2846 15.08852446 65426,6917.842,95.437,540.903,538.512,0.0
53249.0,STARLINK-4128,PAYLOAD,2023-09-25 00:26:59,15.08830892,0.0001823,53.2157,259.436,94.4598,265.6602,6.9071e-05,8.11e-06,0.0,0 STARLINK-4128,1 53249U 22086H   23268.01874264  .00000811  00000-0  69071-4 0  9991,2 53249  53.2157 259.4360 0001823  94.4598 265.6602 15.08830892 65518,6917.908,95.438,541.034,538.512,0.0
53249.0,STARLINK-4128,PAYLOAD,2023-09-25 08:23:54,15.08844704,0.0001842,53.2153,257.9581,96.6901,263.4301,0.00029422,4.398e-05,0.0,0 STARLINK-4128,1 53249U 22086H   23268.34993918  .00004398  00000-0  29422-3 0  9994,2 53249  53.2153 257.9581 0001842  96.6901 263.4301 15.08844704 65569,6917.866,95.437,541.005,538.457,0.0
53249.0,STARLINK-4128,PAYLOAD,2023-09-26 06:39:18,15.08866552,0.0001893,53.2149,253.7955,99.7096,260.411,0.00090789,0.00014201,0.0,0 STARLINK-4128,1 53249U 22086H   23269.27729185  .00014201  00000-0  90789-3 0  9998,2 53249  53.2149 253.7955 0001893  99.7096 260.4110 15.08866552 65704,6917.799,95.436,540.974,538.355,0.0
53249.0,STARLINK-4128,PAYLOAD,2023-09-26 22:33:09,15.08855081,0.0002073,53.2144,250.8217,99.0067,261.116,0.0004614,7.066e-05,0.0,0 STARLINK-4128,1 53249U 22086H   23269.93969177  .00007066  00000-0  46140-3 0  9991,2 53249  53.2144 250.8217 0002073  99.0067 261.1160 15.08855081 65809,6917.834,95.437,541.133,538.265,0.0
53249.0,STARLINK-4128,PAYLOAD,2023-09-27 08:05:28,15.08836351,0.0001726,53.2146,249.0348,107.7304,252.3876,-7.3156e-05,-1.452e-05,0.0,0 STARLINK-4128,1 53249U 22086H   23270.33713577 -.00001452  00000-0 -73156-4 0  9991,2 53249  53.2146 249.0348 0001726 107.7304 252.3876 15.08836351 65862,6917.892,95.438,540.951,538.563,0.0
53249.0,STARLINK-4128,PAYLOAD,2023-09-27 16:02:24,15.08829742,0.0001516,53.2133,247.5475,94.3282,265.7883,-0.00014618,-2.613e-05,0.0,0 STARLINK-4128,1 53249U 22086H   23270.66834045 -.00002613  00000-0 -14618-3 0  9998,2 53249  53.2133 247.5475 0001516  94.3282 265.7883 15.08829742 65913,6917.912,95.438,540.825,538.728,0.0
53249.0,STARLINK-4128,PAYLOAD,2023-09-28 07:56:16,15.08835687,0.0001503,53.2141,244.572,101.869,258.2471,6.2559e-05,7.08e-06,0.0,0 STARLINK-4128,1 53249U 22086H   23271.33074311  .00000708  00000-0  62559-4 0  9994,2 53249  53.2141 244.5720 0001503 101.8690 258.2471 15.08835687 66214,6917.894,95.438,540.798,538.719,0.0
53249.0,STARLINK-4128,PAYLOAD,2023-09-29 07:47:03,15.08850475,0.0001743,53.2158,240.1118,100.2358,259.883,0.00047188,7.232e-05,0.0,0 STARLINK-4128,1 53249U 22086H   23272.32434242  .00007232  00000-0  47188-3 0  9996,2 53249  53.2158 240.1118 0001743 100.2358 259.8830 15.08850475 66167,6917.848,95.437,540.919,538.508,0.0
53249.0,STARLINK-4128,PAYLOAD,2023-09-30 04:27:03,15.08852689,0.0001673,53.2162,236.2444,82.6314,277.4868,0.00026315,3.904e-05,0.0,0 STARLINK-4128,1 53249U 22086H   23273.18545817  .00003904  00000-0  26315-3 0  9993,2 53249  53.2162 236.2444 0001673  82.6314 277.4868 15.08852689 66297,6917.842,95.437,540.864,538.549,0.0
53249.0,STARLINK-4128,PAYLOAD,2023-10-01 02:42:27,15.08839219,0.0001671,53.2167,232.0823,97.3231,262.7951,-9.994e-05,-1.878e-05,0.0,0 STARLINK-4128,1 53249U 22086H   23274.11282022 -.00001878  00000-0 -99940-4 0  9998,2 53249  53.2167 232.0823 0001671  97.3231 262.7951 15.08839219 66436,6917.883,95.438,540.904,538.592,0.0
53249.0,STARLINK-4128,PAYLOAD,2023-10-01 04:17:50,15.0884228,0.0001362,53.2146,231.7882,89.0324,271.0824,-2.4244e-05,-6.74e-06,0.0,0 STARLINK-4128,1 53249U 22086H   23274.17906036 -.00000674  00000-0 -24244-4 0  9990,2 53249  53.2146 231.7882 0001362  89.0324 271.0824 15.08842280 66649,6917.873,95.437,540.681,538.796,0.0
53249.0,STARLINK-4128,PAYLOAD,2023-10-01 21:47:05,15.08835908,0.0001588,53.2158,228.5191,99.6102,260.507,0.00010405,1.368e-05,0.0,0 STARLINK-4128,1 53249U 22086H   23274.90770467  .00001368  00000-0  10405-3 0  9990,2 53249  53.2158 228.5191 0001588  99.6102 260.5070 15.08835908 66757,6917.893,95.438,540.856,538.659,0.0
53249.0,STARLINK-4128,PAYLOAD,2023-10-02 04:08:37,15.08849533,0.0001497,53.2164,227.3306,90.8685,269.2479,0.00023523,3.459e-05,0.0,0 STARLINK-4128,1 53249U 22086H   23275.17265956  .00003459  00000-0  23523-3 0  9990,2 53249  53.2164 227.3306 0001497  90.8685 269.2479 15.08849533 66597,6917.851,95.437,540.752,538.681,0.0
53249.0,STARLINK-4128,PAYLOAD,2023-10-02 20:02:29,15.08838143,0.000154,53.2164,224.3573,98.501,261.6156,0.00015713,2.213e-05,0.0,0 STARLINK-4128,1 53249U 22086H   23275.83506499  .00002213  00000-0  15713-3 0  9992,2 53249  53.2164 224.3573 0001540  98.5010 261.6156 15.08838143 66690,6917.886,95.438,540.816,538.686,0.0
53249.0,STARLINK-4128,PAYLOAD,2023-10-03 13:31:43,15.08841725,0.0001545,53.217,221.0838,89.168,270.9489,7.2082e-05,8.59e-06,0.0,0 STARLINK-4128,1 53249U 22086H   23276.56370362  .00000859  00000-0  72082-4 0  9998,2 53249  53.2170 221.0838 0001545  89.1680 270.9489 15.08841725 67007,6917.875,95.437,540.809,538.671,0.0
53249.0,STARLINK-4128,PAYLOAD,2023-10-03 23:04:03,15.08830592,0.0001418,53.2163,219.2984,90.282,269.8335,-0.00016527,-2.917e-05,0.0,0 STARLINK-4128,1 53249U 22086H   23276.96115118 -.00002917  00000-0 -16527-3 0  9998,2 53249  53.2163 219.2984 0001418  90.2820 269.8335 15.08830592 66868,6917.909,95.438,540.755,538.793,0.0
53249.0,STARLINK-4128,PAYLOAD,2023-10-04 13:22:31,15.08841716,0.0001259,53.2162,216.6232,91.3703,268.7433,2.5091e-05,1.11e-06,0.0,0 STARLINK-4128,1 53249U 22086H   23277.55730650  .00000111  00000-0  25091-4 0  9997,2 53249  53.2162 216.6232 0001259  91.3703 268.7433 15.08841716 67159,6917.875,95.437,540.611,538.869,0.0
53249.0,STARLINK-4128,PAYLOAD,2023-10-05 05:16:21,15.08858028,0.00014,53.2164,213.6475,96.4133,263.7019,0.00031059,4.661e-05,0.0,0 STARLINK-4128,1 53249U 22086H   23278.21969897  .00004661  00000-0  31059-3 0  9992,2 53249  53.2164 213.6475 0001400  96.4133 263.7019 15.08858028 67056,6917.825,95.436,540.659,538.722,0.0
53249.0,STARLINK-4128,PAYLOAD,2023-10-05 13:13:18,15.08848461,0.0001353,53.2169,212.1619,93.7705,266.3442,6.0108e-05,6.69e-06,0.0,0 STARLINK-4128,1 53249U 22086H   23278.55090278  .00000669  00000-0  60108-4 0  9999,2 53249  53.2169 212.1619 0001353  93.7705 266.3442 15.08848461 67304,6917.855,95.437,540.656,538.784,0.0
53249.0,STARLINK-4128,PAYLOAD,2023-10-06 13:04:05,15.08844823,0.0001265,53.216,207.7035,81.8717,278.2418,0.00017155,2.444e-05,0.0,0 STARLINK-4128,1 53249U 22086H   23279.54450582  .00002444  00000-0  17155-3 0  9993,2 53249  53.2160 207.7035 0001265  81.8717 278.2418 15.08844823 67459,6917.866,95.437,540.606,538.856,0.0
53249.0,STARLINK-4128,PAYLOAD,2023-10-06 22:36:24,15.08838622,0.0001555,53.217,205.9174,104.8049,255.3116,3.7283e-05,3.05e-06,0.0,0 STARLINK-4128,1 53249U 22086H   23279.94194991  .00000305  00000-0  37283-4 0  9995,2 53249  53.2170 205.9174 0001555 104.8049 255.3116 15.08838622 67518,6917.885,95.438,540.825,538.674,0.0
53249.0,STARLINK-4128,PAYLOAD,2023-10-07 04:57:56,15.08850838,0.0001508,53.216,204.7274,102.2793,257.8368,5.8262e-05,6.4e-06,0.0,0 STARLINK-4128,1 53249U 22086H   23280.20690298  .00000640  00000-0  58262-4 0  9999,2 53249  53.2160 204.7274 0001508 102.2793 257.8368 15.08850838 67554,6917.847,95.437,540.755,538.669,0.0
53249.0,STARLINK-4128,PAYLOAD,2023-10-07 22:27:11,15.08835303,0.000155,53.2168,201.4568,91.6135,268.5034,6.3707e-05,7.26e-06,0.0,0 STARLINK-4128,1 53249U 22086H   23280.93555338  .00000726  00000-0  63707-4 0  9999,2 53249  53.2168 201.4568 0001550  91.6135 268.5034 15.08835303 67661,6917.895,95.438,540.832,538.687,0.0
53249.0,STARLINK-4128,PAYLOAD,2023-10-08 01:37:58,15.08836567,0.0001557,53.2183,200.8626,92.7935,267.3236,9.8326e-05,1.277e-05,0.0,0 STARLINK-4128,1 53249U 22086H   23281.06803286  .00001277  00000-0  98326-4 0  9999,2 53249  53.2183 200.8626 0001557  92.7935 267.3236 15.08836567 67487,6917.891,95.438,540.833,538.679,0.0
53249.0,STARLINK-4128,PAYLOAD,2023-10-08 04:48:43,15.0884854,0.0001572,53.2162,200.2665,92.0361,268.0811,0.0001287,1.761e-05,0.0,0 STARLINK-4128,1 53249U 22086H   23281.20050719  .00001761  00000-0  12870-3 0  9997,2 53249  53.2162 200.2665 0001572  92.0361 268.0811 15.08848540 67508,6917.854,95.437,540.807,538.632,0.0
